{
  "type": "FeatureCollection",
  "features": [
    {
      "type": "Feature",
      "properties": {
        "norad_id": 38867,
        "name": "INTELSAT 23 (IS-23)",
        "group": "intelsat",
        "lat": 0.02290643503003881,
        "lon": 102.15741833220717,
        "alt_km": 35790.19857097209,
        "timestamp": "2025-12-11T05:00:25.978876+00:00",
        "meta_object_name": "INTELSAT 23 (IS-23)",
        "meta_object_id": "2012-057A",
        "meta_epoch": "2025-12-09T20:10:10.491744",
        "meta_mean_motion": 1.00260311,
        "meta_eccentricity": 0.00020064,
        "meta_inclination": 0.0432,
        "meta_ra_of_asc_node": 94.7791,
        "meta_arg_of_pericenter": 102.2636,
        "meta_mean_anomaly": 131.2856,
        "meta_ephemeris_type": 0,
        "meta_classification_type": "U",
        "meta_norad_cat_id": 38867,
        "meta_element_set_no": 999,
        "meta_rev_at_epoch": 4805,
        "meta_bstar": 0,
        "meta_mean_motion_dot": -2.82e-06,
        "meta_mean_motion_ddot": 0,
        "tle_line1": "1 38867U 12057A   25343.84039921 -.00000282  00000+0  00000+0 0  9991",
        "tle_line2": "2 38867   0.0432  94.7791 0002006 102.2636 131.2856  1.00260311 48055"
      },
      "geometry": {
        "type": "Point",
        "coordinates": [
          102.15741833220717,
          0.02290643503003881
        ]
      }
    },
    {
      "type": "Feature",
      "properties": {
        "norad_id": 39360,
        "name": "FM-6",
        "group": "intelsat",
        "lat": 0.005804250385064119,
        "lon": 39.09270139556798,
        "alt_km": 35795.16906503668,
        "timestamp": "2025-12-11T05:00:25.978887+00:00",
        "meta_object_name": "FM-6",
        "meta_object_id": "2013-058A",
        "meta_epoch": "2025-12-10T16:24:48.771648",
        "meta_mean_motion": 1.00269319,
        "meta_eccentricity": 0.00028652,
        "meta_inclination": 0.0074,
        "meta_ra_of_asc_node": 61.5129,
        "meta_arg_of_pericenter": 111.9114,
        "meta_mean_anomaly": 36.2778,
        "meta_ephemeris_type": 0,
        "meta_classification_type": "U",
        "meta_norad_cat_id": 39360,
        "meta_element_set_no": 999,
        "meta_rev_at_epoch": 4418,
        "meta_bstar": 0,
        "meta_mean_motion_dot": -1.2e-07,
        "meta_mean_motion_ddot": 0,
        "tle_line1": "1 39360U 13058A   25344.68389782 -.00000012  00000+0  00000+0 0  9999",
        "tle_line2": "2 39360   0.0074  61.5129 0002865 111.9114  36.2778  1.00269319 44188"
      },
      "geometry": {
        "type": "Point",
        "coordinates": [
          39.09270139556798,
          0.005804250385064119
        ]
      }
    },
    {
      "type": "Feature",
      "properties": {
        "norad_id": 40271,
        "name": "INTELSAT 30 (IS-30)",
        "group": "intelsat",
        "lat": 0.022921057643259562,
        "lon": 60.201326263087324,
        "alt_km": 35781.52588314054,
        "timestamp": "2025-12-11T05:00:25.978899+00:00",
        "meta_object_name": "INTELSAT 30 (IS-30)",
        "meta_object_id": "2014-062A",
        "meta_epoch": "2025-12-10T19:56:16.821600",
        "meta_mean_motion": 1.00269622,
        "meta_eccentricity": 0.00013007,
        "meta_inclination": 0.0174,
        "meta_ra_of_asc_node": 29.1064,
        "meta_arg_of_pericenter": 50.969,
        "meta_mean_anomaly": 203.7271,
        "meta_ephemeris_type": 0,
        "meta_classification_type": "U",
        "meta_norad_cat_id": 40271,
        "meta_element_set_no": 999,
        "meta_rev_at_epoch": 489,
        "meta_bstar": 0,
        "meta_mean_motion_dot": -1.46e-06,
        "meta_mean_motion_ddot": 0,
        "tle_line1": "1 40271U 14062A   25344.83075025 -.00000146  00000+0  00000+0 0  9995",
        "tle_line2": "2 40271   0.0174  29.1064 0001300  50.9690 203.7271  1.00269622  4894"
      },
      "geometry": {
        "type": "Point",
        "coordinates": [
          60.201326263087324,
          0.022921057643259562
        ]
      }
    },
    {
      "type": "Feature",
      "properties": {
        "norad_id": 40333,
        "name": "DIRECTV 14",
        "group": "intelsat",
        "lat": 0.03498683326004599,
        "lon": 56.06364132835218,
        "alt_km": 35787.1511450249,
        "timestamp": "2025-12-11T05:00:25.978910+00:00",
        "meta_object_name": "DIRECTV 14",
        "meta_object_id": "2014-078B",
        "meta_epoch": "2025-12-10T19:55:09.428736",
        "meta_mean_motion": 1.00272899,
        "meta_eccentricity": 4.332e-05,
        "meta_inclination": 0.0175,
        "meta_ra_of_asc_node": 323.2258,
        "meta_arg_of_pericenter": 231.6698,
        "meta_mean_anomaly": 84.4814,
        "meta_ephemeris_type": 0,
        "meta_classification_type": "U",
        "meta_norad_cat_id": 40333,
        "meta_element_set_no": 999,
        "meta_rev_at_epoch": 4015,
        "meta_bstar": 0,
        "meta_mean_motion_dot": -1.21e-06,
        "meta_mean_motion_ddot": 0,
        "tle_line1": "1 40333U 14078B   25344.82997024 -.00000121  00000+0  00000+0 0  9995",
        "tle_line2": "2 40333   0.0175 323.2258 0000433 231.6698  84.4814  1.00272899 40155"
      },
      "geometry": {
        "type": "Point",
        "coordinates": [
          56.06364132835218,
          0.03498683326004599
        ]
      }
    },
    {
      "type": "Feature",
      "properties": {
        "norad_id": 40663,
        "name": "DIRECTV 15",
        "group": "intelsat",
        "lat": -0.0016767117244170194,
        "lon": 52.40895604571478,
        "alt_km": 35787.67343958198,
        "timestamp": "2025-12-11T05:00:25.978921+00:00",
        "meta_object_name": "DIRECTV 15",
        "meta_object_id": "2015-026A",
        "meta_epoch": "2025-12-10T19:53:54.549312",
        "meta_mean_motion": 1.00270849,
        "meta_eccentricity": 3.133e-05,
        "meta_inclination": 0.041,
        "meta_ra_of_asc_node": 84.6523,
        "meta_arg_of_pericenter": 149.0954,
        "meta_mean_anomaly": 41.6611,
        "meta_ephemeris_type": 0,
        "meta_classification_type": "U",
        "meta_norad_cat_id": 40663,
        "meta_element_set_no": 999,
        "meta_rev_at_epoch": 3857,
        "meta_bstar": 0,
        "meta_mean_motion_dot": -9.8e-07,
        "meta_mean_motion_ddot": 0,
        "tle_line1": "1 40663U 15026A   25344.82910358 -.00000098  00000+0  00000+0 0  9993",
        "tle_line2": "2 40663   0.0410  84.6523 0000313 149.0954  41.6611  1.00270849 38576"
      },
      "geometry": {
        "type": "Point",
        "coordinates": [
          52.40895604571478,
          -0.0016767117244170194
        ]
      }
    },
    {
      "type": "Feature",
      "properties": {
        "norad_id": 40664,
        "name": "SKY MEXICO-1",
        "group": "intelsat",
        "lat": 0.01847799178366073,
        "lon": 76.51600514260664,
        "alt_km": 35797.24249188775,
        "timestamp": "2025-12-11T05:00:25.978932+00:00",
        "meta_object_name": "SKY MEXICO-1",
        "meta_object_id": "2015-026B",
        "meta_epoch": "2025-12-10T20:00:53.878752",
        "meta_mean_motion": 1.00270554,
        "meta_eccentricity": 0.00027057,
        "meta_inclination": 0.0312,
        "meta_ra_of_asc_node": 71.9734,
        "meta_arg_of_pericenter": 204.1974,
        "meta_mean_anomaly": 25.0872,
        "meta_ephemeris_type": 0,
        "meta_classification_type": "U",
        "meta_norad_cat_id": 40664,
        "meta_element_set_no": 999,
        "meta_rev_at_epoch": 3856,
        "meta_bstar": 0,
        "meta_mean_motion_dot": -2.29e-06,
        "meta_mean_motion_ddot": 0,
        "tle_line1": "1 40664U 15026B   25344.83395693 -.00000229  00000+0  00000+0 0  9990",
        "tle_line2": "2 40664   0.0312  71.9734 0002705 204.1974  25.0872  1.00270554 38560"
      },
      "geometry": {
        "type": "Point",
        "coordinates": [
          76.51600514260664,
          0.01847799178366073
        ]
      }
    },
    {
      "type": "Feature",
      "properties": {
        "norad_id": 40874,
        "name": "INTELSAT 34 (IS-34)",
        "group": "intelsat",
        "lat": 0.022833829706342762,
        "lon": 99.76956568220706,
        "alt_km": 35785.74025963723,
        "timestamp": "2025-12-11T05:00:25.978943+00:00",
        "meta_object_name": "INTELSAT 34 (IS-34)",
        "meta_object_id": "2015-039A",
        "meta_epoch": "2025-12-10T20:07:38.234208",
        "meta_mean_motion": 1.00269899,
        "meta_eccentricity": 5.026e-05,
        "meta_inclination": 0.0125,
        "meta_ra_of_asc_node": 323.3342,
        "meta_arg_of_pericenter": 200.8479,
        "meta_mean_anomaly": 162.0354,
        "meta_ephemeris_type": 0,
        "meta_classification_type": "U",
        "meta_norad_cat_id": 40874,
        "meta_element_set_no": 999,
        "meta_rev_at_epoch": 3773,
        "meta_bstar": 0,
        "meta_mean_motion_dot": -2.8e-06,
        "meta_mean_motion_ddot": 0,
        "tle_line1": "1 40874U 15039A   25344.83863697 -.00000280  00000+0  00000+0 0  9998",
        "tle_line2": "2 40874   0.0125 323.3342 0000502 200.8479 162.0354  1.00269899 37735"
      },
      "geometry": {
        "type": "Point",
        "coordinates": [
          99.76956568220706,
          0.022833829706342762
        ]
      }
    }
  ]
}